ONEWEB-0416             
1 51625U 22012D   26156.41497428  .00000277  00000+0  75693-3 0  9993
2 51625  87.8845  38.6281 0001916  95.6626 264.4720 13.10388552207785
ONEWEB-0422             
1 51626U 22012E   26156.30542561 -.00000075  00000+0 -22603-3 0  9992
2 51626  87.9147   8.2212 0001300  71.6586 288.4686 13.17650142212243
ONEWEB-0423             
1 51627U 22012F   26156.29868647  .00000016  00000+0  90291-5 0  9990
2 51627  87.9144   8.2286 0001920  84.4953 275.6397 13.17649311212131
ONEWEB-0425             
1 51628U 22012G   26156.42493926  .00000566  00000+0  15837-2 0  9990
2 51628  87.8838  38.6097 0002201  80.6171 279.5205 13.10375469207780
ONEWEB-0428             
1 51629U 22012H   26156.40498579 -.00000350  00000+0 -10395-2 0  9995
2 51629  87.8851  38.6221 0001733  78.8768 281.2554 13.10376860207744
ONEWEB-0431             
1 51630U 22012J   26156.37497676 -.00000090  00000+0 -29451-3 0  9995
2 51630  87.8842  38.6187 0001275  94.2225 265.9048 13.10369633207790
ONEWEB-0434             
1 51631U 22012K   26156.42838672  .00000628  00000+0  17638-2 0  9995
2 51631  87.8856  38.6315 0002375  82.1724 277.9673 13.10374573207786
ONEWEB-0435             
1 51632U 22012L   26156.43653275 -.00000844  00000+0 -24543-2 0  9996
2 51632  87.8849  38.6187 0002063  69.0868 291.0480 13.10375031207775
ONEWEB-0436             
1 51633U 22012M   26156.51803917 -.00000022  00000+0 -90241-4 0  9994
2 51633  87.9152   8.1663 0001621  85.3222 274.8094 13.17650835212141
ONEWEB-0438             
1 51634U 22012N   26155.73272883  .00000658  00000+0  18476-2 0  9991
2 51634  87.8849  38.7624 0002003  82.0585 278.0769 13.10376671207719
ONEWEB-0439             
1 51635U 22012P   26156.42326550  .00000511  00000+0  14285-2 0  9992
2 51635  87.8846  38.6108 0001815  79.9173 280.2159 13.10375722207782
ONEWEB-0442             
1 51636U 22012Q   26156.51045355  .00000011  00000+0 -48976-5 0  9997
2 51636  87.9143   8.2013 0002407  88.6072 271.5335 13.17648482212132
ONEWEB-0443             
1 51637U 22012R   26156.30204529  .00000033  00000+0  51372-4 0  9991
2 51637  87.9141   8.2440 0001942  76.6171 283.5177 13.17648530212158
ONEWEB-0444             
1 51638U 22012S   26156.41329889  .00000170  00000+0  45114-3 0  9999
2 51638  87.8855  38.6154 0001872  67.7188 292.4138 13.10377926207791
ONEWEB-0445             
1 51639U 22012T   26156.43488896  .00000548  00000+0  15325-2 0  9995
2 51639  87.8858  38.5941 0001702  91.4447 268.6875 13.10372657207803
ONEWEB-0446             
1 51640U 22012U   26156.41163196 -.00000011  00000+0 -66435-4 0  9995
2 51640  87.8852  38.6285 0001766  87.6807 272.4522 13.10377287207781
ONEWEB-0448             
1 51641U 22012V   26156.41662786  .00000295  00000+0  80936-3 0  9998
2 51641  87.8846  38.6250 0001811  77.5336 282.5993 13.10375874207754
ONEWEB-0449             
1 51642U 22012W   26156.42160235  .00001060  00000+0  29991-2 0  9996
2 51642  87.8880  38.6078 0002105  70.1984 289.9370 13.10380834207769
ONEWEB-0451             
1 51643U 22012X   26156.51467766  .00000084  00000+0  18344-3 0  9992
2 51643  87.9153   8.1639 0002079  84.1733 275.9636 13.17650039212126
ONEWEB-0452             
1 51644U 22012Y   26156.51297948  .00000035  00000+0  58102-4 0  9999
2 51644  87.9142   8.2024 0001992  77.0071 283.1283 13.17650556212137
ONEWEB-0456             
1 51646U 22012AA  26156.43154868  .00000267  00000+0  72733-3 0  9997
2 51646  87.8848  38.5941 0001720  74.8740 285.2578 13.10376106207809
ONEWEB-0457             
1 51647U 22012AB  26156.40816421 -.00000147  00000+0 -45666-3 0  9999
2 51647  87.8849  38.6171 0001955  92.1915 267.9436 13.10375931207809
ONEWEB-0458             
1 51648U 22012AC  26156.42993404  .00001445  00000+0  41017-2 0  9994
2 51648  87.8853  38.6001 0002123  76.4219 283.7145 13.10388929207766
ONEWEB-0461             
1 51649U 22012AD  26156.68678218  .00000013  00000+0  98962-6 0  9991
2 51649  87.9150   8.1444 0001871  91.3353 268.7993 13.17648130212372
ONEWEB-0463             
1 51650U 22012AE  26156.51636006  .00000122  00000+0  28105-3 0  9994
2 51650  87.9143   8.2015 0001916  93.3959 266.7392 13.17650733212132
ONEWEB-0464             
1 51651U 22012AF  26156.04480009  .00000778  00000+0  21917-2 0  9993
2 51651  87.8847  38.6983 0001764  76.8785 283.2540 13.10375806207735
ONEWEB-0468             
1 51652U 22012AG  26156.12779604  .00001014  00000+0  28693-2 0  9997
2 51652  87.8835  38.6770 0001748  69.8858 290.2458 13.10374373207725
ONEWEB-0473             
1 51653U 22012AH  26156.41828125  .00000358  00000+0  99022-3 0  9998
2 51653  87.8846  38.6205 0001822  77.0320 283.1010 13.10376874207766
ONEWEB-0474             
1 51654U 22012AJ  26155.64639869  .00000144  00000+0  37568-3 0  9998
2 51654  87.8858  38.7572 0001795  72.8407 287.2917 13.10378117207657
ONEWEB-0475             
1 51655U 22012AK  26156.30036199  .00000013  00000+0 -66851-6 0  9996
2 51655  87.9140   8.2370 0001820  64.6808 295.4512 13.17649632212124
ONEWEB-0490             
1 54113U 22138A   26156.68624161 -.00000068  00000+0 -20117-3 0  9993
2 54113  87.9169 307.2583 0001640  95.1585 264.9735 13.19726286175316
